{
  "type": "FeatureCollection",
  "features": [
    {
      "type": "Feature",
      "properties": {
        "norad_id": 66653,
        "name": "2025-274D",
        "group": "last-30-days",
        "lat": 45.38118482446558,
        "lon": -85.27740884794237,
        "alt_km": 596.0225073478332,
        "timestamp": "2025-12-21T14:40:46.632884+00:00",
        "meta_object_name": "2025-274D",
        "meta_object_id": "2025-274D",
        "meta_epoch": "2025-12-21T01:35:49.044768",
        "meta_mean_motion": 14.91940992,
        "meta_eccentricity": 0.00115575,
        "meta_inclination": 97.7402,
        "meta_ra_of_asc_node": 282.1098,
        "meta_arg_of_pericenter": 222.6644,
        "meta_mean_anomaly": 137.3678,
        "meta_ephemeris_type": 0,
        "meta_classification_type": "U",
        "meta_norad_cat_id": 66653,
        "meta_element_set_no": 999,
        "meta_rev_at_epoch": 364,
        "meta_bstar": 0.00015363809,
        "meta_mean_motion_dot": 1.501e-05,
        "meta_mean_motion_ddot": 0,
        "tle_line1": "1 66653U 25274D   25355.06653987  .00001501  00000+0  15364-3 0  9998",
        "tle_line2": "2 66653  97.7402 282.1098 0011557 222.6644 137.3678 14.91940992  3648"
      },
      "geometry": {
        "type": "Point",
        "coordinates": [
          -85.27740884794237,
          45.38118482446558
        ]
      }
    },
    {
      "type": "Feature",
      "properties": {
        "norad_id": 66654,
        "name": "JACK E",
        "group": "last-30-days",
        "lat": 60.38472531790367,
        "lon": -91.19209724308239,
        "alt_km": 593.4869253365423,
        "timestamp": "2025-12-21T14:40:46.632894+00:00",
        "meta_object_name": "JACK E",
        "meta_object_id": "2025-274E",
        "meta_epoch": "2025-12-20T20:42:04.523904",
        "meta_mean_motion": 14.92121282,
        "meta_eccentricity": 0.0012135,
        "meta_inclination": 97.7405,
        "meta_ra_of_asc_node": 281.9164,
        "meta_arg_of_pericenter": 225.2906,
        "meta_mean_anomaly": 134.7326,
        "meta_ephemeris_type": 0,
        "meta_classification_type": "U",
        "meta_norad_cat_id": 66654,
        "meta_element_set_no": 999,
        "meta_rev_at_epoch": 361,
        "meta_bstar": 0.0001597,
        "meta_mean_motion_dot": 1.569e-05,
        "meta_mean_motion_ddot": 0,
        "tle_line1": "1 66654U 25274E   25354.86255236  .00001569  00000+0  15970-3 0  9998",
        "tle_line2": "2 66654  97.7405 281.9164 0012135 225.2906 134.7326 14.92121282  3618"
      },
      "geometry": {
        "type": "Point",
        "coordinates": [
          -91.19209724308239,
          60.38472531790367
        ]
      }
    },
    {
      "type": "Feature",
      "properties": {
        "norad_id": 66655,
        "name": "2025-274F",
        "group": "last-30-days",
        "lat": 34.34255612459065,
        "lon": -82.69295343836917,
        "alt_km": 589.5692503353175,
        "timestamp": "2025-12-21T14:40:46.632906+00:00",
        "meta_object_name": "2025-274F",
        "meta_object_id": "2025-274F",
        "meta_epoch": "2025-12-21T01:38:27.508416",
        "meta_mean_motion": 14.9118005,
        "meta_eccentricity": 0.00048414,
        "meta_inclination": 97.7329,
        "meta_ra_of_asc_node": 282.1017,
        "meta_arg_of_pericenter": 354.4342,
        "meta_mean_anomaly": 5.6822,
        "meta_ephemeris_type": 0,
        "meta_classification_type": "U",
        "meta_norad_cat_id": 66655,
        "meta_element_set_no": 999,
        "meta_rev_at_epoch": 364,
        "meta_bstar": 7.173368e-06,
        "meta_mean_motion_dot": 1.6e-07,
        "meta_mean_motion_ddot": 0,
        "tle_line1": "1 66655U 25274F   25355.06837394  .00000016  00000+0  71734-5 0  9991",
        "tle_line2": "2 66655  97.7329 282.1017 0004841 354.4342   5.6822 14.91180050  3645"
      },
      "geometry": {
        "type": "Point",
        "coordinates": [
          -82.69295343836917,
          34.34255612459065
        ]
      }
    },
    {
      "type": "Feature",
      "properties": {
        "norad_id": 66656,
        "name": "2025-274G",
        "group": "last-30-days",
        "lat": 75.84158738564709,
        "lon": -109.96829630999898,
        "alt_km": 590.9107832269328,
        "timestamp": "2025-12-21T14:40:46.632916+00:00",
        "meta_object_name": "2025-274G",
        "meta_object_id": "2025-274G",
        "meta_epoch": "2025-12-21T01:27:22.380480",
        "meta_mean_motion": 14.92317056,
        "meta_eccentricity": 0.00127186,
        "meta_inclination": 97.7403,
        "meta_ra_of_asc_node": 282.1173,
        "meta_arg_of_pericenter": 226.3765,
        "meta_mean_anomaly": 133.64,
        "meta_ephemeris_type": 0,
        "meta_classification_type": "U",
        "meta_norad_cat_id": 66656,
        "meta_element_set_no": 999,
        "meta_rev_at_epoch": 364,
        "meta_bstar": 0.00017088874,
        "meta_mean_motion_dot": 1.692e-05,
        "meta_mean_motion_ddot": 0,
        "tle_line1": "1 66656U 25274G   25355.06067570  .00001692  00000+0  17089-3 0  9995",
        "tle_line2": "2 66656  97.7403 282.1173 0012718 226.3765 133.6400 14.92317056  3643"
      },
      "geometry": {
        "type": "Point",
        "coordinates": [
          -109.96829630999898,
          75.84158738564709
        ]
      }
    },
    {
      "type": "Feature",
      "properties": {
        "norad_id": 66657,
        "name": "SPIRONE",
        "group": "last-30-days",
        "lat": 81.19240444617719,
        "lon": 164.04228667450744,
        "alt_km": 589.1545832402107,
        "timestamp": "2025-12-21T14:40:46.632929+00:00",
        "meta_object_name": "SPIRONE",
        "meta_object_id": "2025-274H",
        "meta_epoch": "2025-12-21T06:12:47.397024",
        "meta_mean_motion": 14.92497536,
        "meta_eccentricity": 0.00108549,
        "meta_inclination": 97.74,
        "meta_ra_of_asc_node": 282.3182,
        "meta_arg_of_pericenter": 243.7435,
        "meta_mean_anomaly": 116.267,
        "meta_ephemeris_type": 0,
        "meta_classification_type": "U",
        "meta_norad_cat_id": 66657,
        "meta_element_set_no": 999,
        "meta_rev_at_epoch": 367,
        "meta_bstar": 0.00018896379,
        "meta_mean_motion_dot": 1.885e-05,
        "meta_mean_motion_ddot": 0,
        "tle_line1": "1 66657U 25274H   25355.25888191  .00001885  00000+0  18896-3 0  9998",
        "tle_line2": "2 66657  97.7400 282.3182 0010854 243.7435 116.2670 14.92497536  3670"
      },
      "geometry": {
        "type": "Point",
        "coordinates": [
          164.04228667450744,
          81.19240444617719
        ]
      }
    },
    {
      "type": "Feature",
      "properties": {
        "norad_id": 66658,
        "name": "2025-274J",
        "group": "last-30-days",
        "lat": 68.90107242134634,
        "lon": 123.31200602493273,
        "alt_km": 588.6604987810106,
        "timestamp": "2025-12-21T14:40:46.632939+00:00",
        "meta_object_name": "2025-274J",
        "meta_object_id": "2025-274J",
        "meta_epoch": "2025-12-21T01:19:06.065184",
        "meta_mean_motion": 14.92665941,
        "meta_eccentricity": 0.00113622,
        "meta_inclination": 97.7401,
        "meta_ra_of_asc_node": 282.1244,
        "meta_arg_of_pericenter": 247.8115,
        "meta_mean_anomaly": 112.1899,
        "meta_ephemeris_type": 0,
        "meta_classification_type": "U",
        "meta_norad_cat_id": 66658,
        "meta_element_set_no": 999,
        "meta_rev_at_epoch": 364,
        "meta_bstar": 0.00014447186,
        "meta_mean_motion_dot": 1.434e-05,
        "meta_mean_motion_ddot": 0,
        "tle_line1": "1 66658U 25274J   25355.05493131  .00001434  00000+0  14447-3 0  9991",
        "tle_line2": "2 66658  97.7401 282.1244 0011362 247.8115 112.1899 14.92665941  3646"
      },
      "geometry": {
        "type": "Point",
        "coordinates": [
          123.31200602493273,
          68.90107242134634
        ]
      }
    },
    {
      "type": "Feature",
      "properties": {
        "norad_id": 66659,
        "name": "JACK K",
        "group": "last-30-days",
        "lat": 52.99810751561999,
        "lon": 113.07730077053264,
        "alt_km": 588.4771249549776,
        "timestamp": "2025-12-21T14:40:46.632949+00:00",
        "meta_object_name": "JACK K",
        "meta_object_id": "2025-274K",
        "meta_epoch": "2025-12-20T18:48:39.993408",
        "meta_mean_motion": 14.92849632,
        "meta_eccentricity": 0.00120482,
        "meta_inclination": 97.7402,
        "meta_ra_of_asc_node": 281.8653,
        "meta_arg_of_pericenter": 250.4202,
        "meta_mean_anomaly": 109.5717,
        "meta_ephemeris_type": 0,
        "meta_classification_type": "U",
        "meta_norad_cat_id": 66659,
        "meta_element_set_no": 999,
        "meta_rev_at_epoch": 360,
        "meta_bstar": 0.00012555127,
        "meta_mean_motion_dot": 1.245e-05,
        "meta_mean_motion_ddot": 0,
        "tle_line1": "1 66659U 25274K   25354.78379622  .00001245  00000+0  12555-3 0  9997",
        "tle_line2": "2 66659  97.7402 281.8653 0012048 250.4202 109.5717 14.92849632  3603"
      },
      "geometry": {
        "type": "Point",
        "coordinates": [
          113.07730077053264,
          52.99810751561999
        ]
      }
    }
  ]
}